#aV2011  7 15  0  0   .00000000      96 DD+AD WGS84 FIT  NGA
## 1644 432000.00000000   900.00000000 55757  .0000000000000
+   31     2  3  4  5  6  7  8  9 10 11 12 13 14 15 16 17 18
+         19 20 21 22 23 24 25 26 27 28 29 30 31 32  0  0  0
+          0  0  0  0  0  0  0  0  0  0  0  0  0  0  0  0  0
+          0  0  0  0  0  0  0  0  0  0  0  0  0  0  0  0  0
+          0  0  0  0  0  0  0  0  0  0  0  0  0  0  0  0  0
++         0  0  0  0  0  0  0  0  0  0  0  0  0  0  0  0  0
++         0  0  0  0  0  0  0  0  0  0  0  0  0  0  0  0  0
++         0  0  0  0  0  0  0  0  0  0  0  0  0  0  0  0  0
++         0  0  0  0  0  0  0  0  0  0  0  0  0  0  0  0  0
++         0  0  0  0  0  0  0  0  0  0  0  0  0  0  0  0  0
%c cc cc ccc ccc cccc cccc cccc cccc ccccc ccccc ccccc ccccc
%c cc cc ccc ccc cccc cccc cccc cccc ccccc ccccc ccccc ccccc
%f  0.0000000  0.000000000  0.00000000000  0.000000000000000
%f  0.0000000  0.000000000  0.00000000000  0.000000000000000
%i    0    0    0    0      0      0      0      0         0
%i    0    0    0    0      0      0      0      0         0
/*      NGA, ST. LOUIS,MO.                                  
/*   EPHEMERIS COMPUTED FROM  3 DAYS OF DATA                
/* CCCCCCCCCCCCCCCCCCCCCCCCCCCCCCCCCCCCCCCCCCCCCCCCCCCCCCCCC
/* CCCCCCCCCCCCCCCCCCCCCCCCCCCCCCCCCCCCCCCCCCCCCCCCCCCCCCCCC
*  2011  7 15  5 15   .00000000                                                 
P  2  14076.740742 -14043.040740  17431.342602    346.646805                    
V  2  22392.529859    376.606655 -18330.043743       .018231                    
P  3 -10221.566632  24135.354154   2636.145023    741.928811                    
V  3  -2622.468373  -5005.913111  31007.060118       .048756                    
P  4  25221.084345  -6247.155975   6106.774170    172.564116                    
V  4   8177.036128   2593.915225 -29725.320206       .108507                    
P  5   4146.361514 -17985.609390  19048.167617   -189.467501                    
V  5  14856.101249  19252.604542  15040.716681      -.055068                    
P  6 -14396.414341  21130.864586   6858.638960    -13.768294                    
V  6     57.293244  -9315.468363  29706.547222      -.850439                    
P  7  23213.659683   6392.274700  11463.962023     17.956245                    
V  7 -14312.883301   2736.055171  27239.725221       .014738                    
P  8  26707.920693   1906.235666   2273.202384      8.520046                    
V  8  -2817.259320   1156.839376  31976.884793       .000990                    
P  9  -5794.157018 -14305.052951 -22172.457475     92.785965                    
V  9  26630.667119  -2662.522930  -5390.453264       .024418                    
P 10  16309.318853  -2102.275152  20708.377610     -6.782506                    
V 10  13889.931917  22885.077219  -8156.372688      -.012528                    
P 11   4378.356058  16367.233255 -20773.687595   -168.166079                    
V 11 -24751.344160   7990.932296   1448.293850      -.032792                    
P 12 -11305.802142 -23616.463833  -4979.766583      9.214293                    
V 12   5219.078947   4122.454601 -31143.174725       .025425                    
P 13  10070.044133  11074.050302  21789.109071    261.070567                    
V 13 -14584.597212  23835.059629  -5408.769564      -.017413                    
P 14 -18004.536171   8322.748918 -17427.357438    161.658300                    
V 14   9748.894294 -20280.900559 -19716.975981       .020782                    
P 15   2093.536085 -23827.760884 -11357.818561   -115.879006                    
V 15   8670.408151 -11978.769298  26876.416475       .020413                    
P 16  -4222.884808  17741.587494  19213.780771   -185.500339                    
V 16 -14008.370959 -20047.472102  15739.517347      -.024188                    
P 17  18109.640122  -9102.154555 -16905.451796    182.291064                    
V 17  -8457.610159  20209.661297 -19997.038498      -.006886                    
P 18 -19465.844937 -13553.907230 -11991.522284    147.259571                    
V 18  -6144.652401 -14693.552499  25498.273581       .019030                    
P 19  -6609.728745  23791.848922  -9295.090997   -162.169058                    
V 19  -8570.009900   8747.980112  28871.665401      -.040974                    
P 20  13743.527098  22582.289813  -3034.749712     50.715777                    
V 20  -5092.400714   -849.147093 -30762.431634       .003554                    
P 21 -24824.586764  -5334.998871   9204.337894   -157.943765                    
V 21  10773.158920  -3481.102822  27752.495219      -.025565                    
P 22 -17765.577889   -577.607640 -19589.762219    146.349959                    
V 22 -12565.007975 -22055.193607  11824.090552      -.004775                    
P 23   3503.509461  19721.121149  17267.443977    291.778763                    
V 23 -11554.628289  18861.579423 -19557.305570      -.028594                    
P 24   9705.851088  14337.487649 -20165.305538    406.770059                    
V 24 -25669.329883   1414.496790 -11025.740299       .031279                    
P 25 -18086.435589 -18404.949345   6326.108941      9.099207                    
V 25  -2480.645599  -8082.801133 -30457.971064       .019069                    
P 26  12021.816288 -23379.151765  -2240.542951    -91.351245                    
V 26   3046.679105   -693.844854  32432.726396      -.120309                    
P 27    425.484677 -14560.856606 -21542.225360    284.790767                    
V 27  28750.267139  -2940.076936   2815.703156       .038118                    
P 28  17962.324085   5471.598886 -18368.572344     51.986083                    
V 28  11623.340493  21353.860611  16997.635056       .028840                    
P 29 -10146.710614 -12414.250894  21257.693395    223.313142                    
V 29  13212.711851 -23329.641751  -7297.975965       .030318                    
P 30 -11432.781680   9762.196017  21478.874170     23.611851                    
V 30 -16887.687749 -22677.396645   1311.465111       .046653                    
P 31 -23748.295696   7785.506910   9499.284190    111.124037                    
V 31 -11774.741897  -1104.786686 -28932.472227       .058258                    
P 32   6170.510438  24329.433435  -9032.565685   -291.882343                    
V 32  -7860.456268  -9064.069150 -28487.413609      -.070980                    
EOF
